H1 CPF  1  DLR 2022 04 18 10  6082 technosat            
H2  1704205 6203    42829 2022 04 18 00 00 00 2022 04 25 00 00 00    60 1 1  0 0 0
H9
10 0 59687  50400.000000  0        269316.682      -6523566.225      -2476374.492
10 0 59687  50460.000000  0        183621.726      -6672234.488      -2051931.905
10 0 59687  50520.000000  0         95981.243      -6792142.513      -1618815.313
10 0 59687  50580.000000  0          7016.914      -6882766.604      -1178854.151
10 0 59687  50640.000000  0        -82639.837      -6943711.937       -733907.675
10 0 59687  50700.000000  0       -172351.657      -6974714.434       -285857.003
10 0 59687  50760.000000  0       -261479.120      -6975642.026        163402.942
10 0 59687  50820.000000  0       -349384.604      -6946495.332        611971.560
10 0 59687  50880.000000  0       -435436.169      -6887407.733       1057950.777
10 0 59687  50940.000000  0       -519011.411      -6798644.778       1499453.262
10 0 59687  51000.000000  0       -599501.268      -6680602.964       1934610.592
10 0 59687  51060.000000  0       -676313.763      -6533807.868       2361581.325
10 0 59687  51120.000000  0       -748877.618      -6358911.699       2778558.961
10 0 59687  51180.000000  0       -816645.727      -6156690.157       3183779.745
10 0 59687  51240.000000  0       -879098.483      -5928038.713       3575530.129
10 0 59687  51300.000000  0       -935747.025      -5673968.478       3952153.980
10 0 59687  51360.000000  0       -986136.306      -5395601.519       4312059.588
10 0 59687  51420.000000  0      -1029847.937      -5094165.669       4653726.334
10 0 59687  51480.000000  0      -1066502.779      -4770988.935       4975711.012
10 0 59687  51540.000000  0      -1095763.368      -4427493.495       5276653.871
10 0 59687  51600.000000  0      -1117336.112      -4065189.246       5555284.291
10 0 59687  51660.000000  0      -1130973.241      -3685666.924       5810426.035
10 0 59687  51720.000000  0      -1136474.481      -3290590.921       6041002.000
10 0 59687  51780.000000  0      -1133688.446      -2881691.862       6246038.517
10 0 59687  51840.000000  0      -1122513.767      -2460758.999       6424669.209
10 0 59687  51900.000000  0      -1102899.981      -2029632.437       6576138.494
10 0 59687  51960.000000  0      -1074848.136      -1590195.124       6699804.687
10 0 59687  52020.000000  0      -1038411.155      -1144364.631       6795142.633
10 0 59687  52080.000000  0       -993693.931       -694084.814       6861745.843
10 0 59687  52140.000000  0       -940853.134       -241317.405       6899328.151
10 0 59687  52200.000000  0       -880096.709        211966.423       6907724.955
10 0 59687  52260.000000  0       -811683.086        663794.590       6886894.016
10 0 59687  52320.000000  0       -735920.103       1112202.647       6836915.719
10 0 59687  52380.000000  0       -653163.659       1555242.254       6757992.875
10 0 59687  52440.000000  0       -563816.096       1990989.629       6650450.060
10 0 59687  52500.000000  0       -468324.316       2417553.903       6514732.442
10 0 59687  52560.000000  0       -367177.633       2833085.303       6351404.161
10 0 59687  52620.000000  0       -260905.404       3235783.272       6161146.273
10 0 59687  52680.000000  0       -150074.413       3623904.417       5944754.136
10 0 59687  52740.000000  0        -35286.007       3995770.190       5703134.326
10 0 59687  52800.000000  0         82826.987       4349774.326       5437301.114
10 0 59687  52860.000000  0        203603.578       4684390.027       5148372.534
10 0 59687  52920.000000  0        326358.122       4998176.952       4837565.944
10 0 59687  52980.000000  0        450384.022       5289787.786       4506192.945
10 0 59687  53040.000000  0        574957.493       5557974.222       4155653.908
10 0 59687  53100.000000  0        699341.496       5801592.479       3787432.306
10 0 59687  53160.000000  0        822789.843       6019608.699       3403088.904
10 0 59687  53220.000000  0        944551.503       6211104.267       3004255.138
10 0 59687  53280.000000  0       1063875.011       6375280.031       2592625.593
10 0 59687  53340.000000  0       1180012.638       6511459.563       2169950.761
10 0 59687  53400.000000  0       1292224.752       6619092.471       1738029.612
10 0 59687  53460.000000  0       1399784.201       6697756.918       1298701.551
10 0 59687  53520.000000  0       1501980.596       6747161.379        853838.329
10 0 59687  53580.000000  0       1598124.575       6767145.860        405335.807
10 0 59687  53640.000000  0       1687551.967       6757682.439        -44894.458
10 0 59687  53700.000000  0       1769627.799       6718875.139       -494933.671
10 0 59687  53760.000000  0       1843750.181       6650959.185       -942864.290
10 0 59687  53820.000000  0       1909354.035       6554299.606      -1386778.499
10 0 59687  53880.000000  0       1965914.634       6429389.219      -1824786.642
10 0 59687  53940.000000  0       2012950.931       6276845.975      -2255025.564
10 0 59687  54000.000000  0       2050028.651       6097409.685      -2675666.798
10 0 59687  54060.000000  0       2076763.130       5891938.176      -3084924.577
10 0 59687  54120.000000  0       2092821.899       5661402.856      -3481063.613
10 0 59687  54180.000000  0       2097926.976       5406883.722      -3862406.577
10 0 59687  54240.000000  0       2091856.848       5129563.878      -4227341.234
10 0 59687  54300.000000  0       2074448.140       4830723.641      -4574327.213
10 0 59687  54360.000000  0       2045596.981       4511734.233      -4901902.419
10 0 59687  54420.000000  0       2005260.062       4174051.120      -5208689.009
10 0 59687  54480.000000  0       1953455.401       3819207.082      -5493398.984
10 0 59687  54540.000000  0       1890262.772       3448804.944      -5754839.405
10 0 59687  54600.000000  0       1815823.781       3064510.032      -5991917.116
10 0 59687  54660.000000  0       1730341.638       2668042.463      -6203642.977
10 0 59687  54720.000000  0       1634080.630       2261169.273      -6389135.629
10 0 59687  54780.000000  0       1527365.310       1845696.476      -6547624.779
10 0 59687  54840.000000  0       1410579.413       1423461.049      -6678454.127
10 0 59687  54900.000000  0       1284164.433        996322.751      -6781083.810
10 0 59687  54960.000000  0       1148617.880        566155.985      -6855092.309
10 0 59687  55020.000000  0       1004491.289        134841.648      -6900177.945
10 0 59687  55080.000000  0        852387.933       -295741.033      -6916159.880
10 0 59687  55140.000000  0        692960.272       -723722.557      -6902978.598
10 0 59687  55200.000000  0        526907.178      -1147251.062      -6860695.978
10 0 59687  55260.000000  0        354970.925      -1564500.146      -6789494.909
10 0 59687  55320.000000  0        177933.960      -1973676.489      -6689678.527
10 0 59687  55380.000000  0         -3384.597      -2373027.422      -6561669.100
10 0 59687  55440.000000  0       -188132.701      -2760848.415      -6406006.363
10 0 59687  55500.000000  0       -375429.305      -3135490.282      -6223345.283
10 0 59687  55560.000000  0       -564368.420      -3495366.073      -6014453.449
10 0 59687  55620.000000  0       -754023.362      -3838957.745      -5780208.093
10 0 59687  55680.000000  0       -943451.162      -4164822.579      -5521592.668
10 0 59687  55740.000000  0      -1131697.127      -4471599.332      -5239692.988
10 0 59687  55800.000000  0      -1317799.527      -4758014.032      -4935692.915
10 0 59687  55860.000000  0      -1500794.384      -5022885.420      -4610869.625
10 0 59687  55920.000000  0      -1679720.346      -5265129.991      -4266588.458
10 0 59687  55980.000000  0      -1853623.597      -5483766.614      -3904297.379
10 0 59687  56040.000000  0      -2021562.798      -5677920.707      -3525521.066
10 0 59687  56100.000000  0      -2182614.028      -5846827.950      -3131854.651
10 0 59687  56160.000000  0      -2335875.698      -5989837.524      -2724957.135
10 0 59687  56220.000000  0      -2480473.427      -6106414.857      -2306544.478
10 0 59687  56280.000000  0      -2615564.827      -6196143.849      -1878382.396
10 0 59687  56340.000000  0      -2740344.194      -6258728.558      -1442278.888
10 0 59687  56400.000000  0      -2854047.054      -6293994.306      -1000076.521
10 0 59687  56460.000000  0      -2955954.540      -6301888.194       -553644.521
10 0 59687  56520.000000  0      -3045397.556      -6282479.011       -104870.744
10 0 59687  56580.000000  0      -3121760.720      -6235956.594        344346.444
10 0 59687  56640.000000  0      -3184486.065      -6162630.605        792106.357
10 0 59687  56700.000000  0      -3233076.478      -6062928.747       1236514.198
10 0 59687  56760.000000  0      -3267098.839      -5937394.397       1675689.269
10 0 59687  56820.000000  0      -3286186.848      -5786683.676       2107773.080
10 0 59687  56880.000000  0      -3290043.512      -5611561.994       2530937.339
10 0 59687  56940.000000  0      -3278443.313      -5412900.129       2943391.785
10 0 59687  57000.000000  0      -3251233.995      -5191669.803       3343391.848
10 0 59687  57060.000000  0      -3208338.006      -4948938.829       3729246.076
10 0 59687  57120.000000  0      -3149753.572      -4685865.831       4099323.306
10 0 59687  57180.000000  0      -3075555.403      -4403694.554       4452059.550
10 0 59687  57240.000000  0      -2985895.036      -4103747.827       4785964.533
10 0 59687  57300.000000  0      -2881000.821      -3787421.215       5099627.914
10 0 59687  57360.000000  0      -2761177.460      -3456176.371       5391725.151
10 0 59687  57420.000000  0      -2626805.189      -3111534.162       5661022.905
10 0 59687  57480.000000  0      -2478338.625      -2755067.623       5906384.080
10 0 59687  57540.000000  0      -2316305.246      -2388394.743       6126772.466
99
